[{"OBJECT_NAME":"HIBARI","OBJECT_ID":"2021-102F","EPOCH":"2026-03-09T16:55:51.090816","MEAN_MOTION":15.29554512,"ECCENTRICITY":0.00120742,"INCLINATION":97.3381,"RA_OF_ASC_NODE":115.826,"ARG_OF_PERICENTER":186.5211,"MEAN_ANOMALY":173.5875,"EPHEMERIS_TYPE":0,"CLASSIFICATION_TYPE":"U","NORAD_CAT_ID":49400,"ELEMENT_SET_NO":999,"REV_AT_EPOCH":23897,"BSTAR":0.00042758039,"MEAN_MOTION_DOT":0.00012206,"MEAN_MOTION_DDOT":0},{"OBJECT_NAME":"STARLINK-34471","OBJECT_ID":"2025-144R","EPOCH":"2026-03-09T13:58:11.140032","MEAN_MOTION":15.30191669,"ECCENTRICITY":0.000114,"INCLINATION":53.1592,"RA_OF_ASC_NODE":181.6625,"ARG_OF_PERICENTER":90.6448,"MEAN_ANOMALY":269.4684,"EPHEMERIS_TYPE":0,"CLASSIFICATION_TYPE":"U","NORAD_CAT_ID":64739,"ELEMENT_SET_NO":999,"REV_AT_EPOCH":3963,"BSTAR":0.00060055,"MEAN_MOTION_DOT":0.00017465,"MEAN_MOTION_DDOT":0}]
